NORAD_CAT_ID,OBJECT_NAME,OBJECT_TYPE,EPOCH,MEAN_MOTION,ECCENTRICITY,INCLINATION,RA_OF_ASC_NODE,ARG_OF_PERICENTER,MEAN_ANOMALY,BSTAR,MEAN_MOTION_DOT,MEAN_MOTION_DDOT,TLE_LINE0,TLE_LINE1,TLE_LINE2,SEMIMAJOR_AXIS,PERIOD,APOGEE,PERIGEE,DECAYED
54790.0,STARLINK-5445,PAYLOAD,2024-04-10 22:10:56,15.08837829,0.0001435,53.2144,281.3006,91.6112,268.5045,2.0658e-05,4.1e-07,0.0,0 STARLINK-5445,1 54790U 22175AJ  24101.92427046  .00000041  00000-0  20658-4 0  9994,2 54790  53.2144 281.3006 0001435  91.6112 268.5045 15.08837829 74797,6917.887,95.438,540.745,538.759,0.0
54790.0,STARLINK-5445,PAYLOAD,2024-04-11 04:32:29,15.08846742,0.0001694,53.2191,280.1125,97.0533,263.0652,-4.8058e-05,-1.053e-05,0.0,0 STARLINK-5445,1 54790U 22175AJ  24102.18922641 -.00001053  00000-0 -48058-4 0  9994,2 54790  53.2191 280.1125 0001694  97.0533 263.0652 15.08846742 72675,6917.86,95.437,540.897,538.553,0.0
54790.0,STARLINK-5445,PAYLOAD,2024-04-11 10:54:01,15.08839112,0.0001658,53.2189,278.9232,99.6117,260.5063,7.2746e-05,8.7e-06,0.0,0 STARLINK-5445,1 54790U 22175AJ  24102.45418920  .00000870  00000-0  72746-4 0  9999,2 54790  53.2189 278.9232 0001658  99.6117 260.5063 15.08839112 74877,6917.883,95.438,540.895,538.601,0.0
54790.0,STARLINK-5445,PAYLOAD,2024-04-11 17:15:34,15.08833966,0.0001557,53.2196,277.7334,100.2438,259.873,2.9211e-05,1.77e-06,0.0,0 STARLINK-5445,1 54790U 22175AJ  24102.71915465  .00000177  00000-0  29211-4 0  9993,2 54790  53.2196 277.7334 0001557 100.2438 259.8730 15.08833966 72756,6917.899,95.438,540.841,538.687,0.0
54790.0,STARLINK-5445,PAYLOAD,2024-04-11 22:01:44,15.08836836,0.0001295,53.2175,276.8385,90.1762,269.9378,9.383e-05,1.206e-05,0.0,0 STARLINK-5445,1 54790U 22175AJ  24102.91787160  .00001206  00000-0  93830-4 0  9996,2 54790  53.2175 276.8385 0001295  90.1762 269.9378 15.08836836 74947,6917.89,95.438,540.651,538.859,0.0
54790.0,STARLINK-5445,PAYLOAD,2024-04-12 10:44:49,15.08837445,0.0001408,53.2184,274.4609,91.4951,268.6202,8.9065e-05,1.13e-05,0.0,0 STARLINK-5445,1 54790U 22175AJ  24103.44779335  .00001130  00000-0  89065-4 0  9991,2 54790  53.2184 274.4609 0001408  91.4951 268.6202 15.08837445 75029,6917.888,95.438,540.727,538.779,0.0
54790.0,STARLINK-5445,PAYLOAD,2024-04-12 21:52:31,15.08846521,0.0001332,53.2171,272.3767,86.5216,273.5928,2.4956e-05,1.09e-06,0.0,0 STARLINK-5445,1 54790U 22175AJ  24103.91147069  .00000109  00000-0  24956-4 0  9999,2 54790  53.2171 272.3767 0001332  86.5216 273.5928 15.08846521 75094,6917.86,95.437,540.647,538.804,0.0
54790.0,STARLINK-5445,PAYLOAD,2024-04-13 10:35:36,15.08847407,0.0002304,53.2174,269.9979,89.0744,271.0512,4.8813e-05,4.89e-06,0.0,0 STARLINK-5445,1 54790U 22175AJ  24104.44139137  .00000489  00000-0  48813-4 0  9994,2 54790  53.2174 269.9979 0002304  89.0744 271.0512 15.08847407 75173,6917.858,95.437,541.317,538.129,0.0
54790.0,STARLINK-5445,PAYLOAD,2024-04-13 18:32:31,15.08844016,0.0001141,53.2169,268.511,83.9571,276.1551,0.00010153,1.329e-05,0.0,0 STARLINK-5445,1 54790U 22175AJ  24104.77259114  .00001329  00000-0  10153-3 0  9997,2 54790  53.2169 268.5110 0001141  83.9571 276.1551 15.08844016 75226,6917.868,95.437,540.522,538.944,0.0
54790.0,STARLINK-5445,PAYLOAD,2024-04-14 10:26:23,15.08842007,0.0001323,53.2164,265.5349,109.2797,250.8338,3.1344e-05,2.11e-06,0.0,0 STARLINK-5445,1 54790U 22175AJ  24105.43499392  .00000211  00000-0  31344-4 0  9990,2 54790  53.2164 265.5349 0001323 109.2797 250.8338 15.08842007 73167,6917.874,95.437,540.654,538.824,0.0
54790.0,STARLINK-5445,PAYLOAD,2024-04-14 18:23:18,15.08845832,0.0001246,53.217,264.0488,90.7311,269.3824,6.5178e-05,7.5e-06,0.0,0 STARLINK-5445,1 54790U 22175AJ  24105.76619140  .00000750  00000-0  65178-4 0  9991,2 54790  53.2170 264.0488 0001246  90.7311 269.3824 15.08845832 75371,6917.863,95.437,540.59,538.866,0.0
54790.0,STARLINK-5445,PAYLOAD,2024-04-15 10:17:10,15.08843045,0.0001473,53.2177,261.0784,71.1331,288.9821,0.00010256,1.345e-05,0.0,0 STARLINK-5445,1 54790U 22175AJ  24106.42859295  .00001345  00000-0  10256-3 0  9999,2 54790  53.2177 261.0784 0001473  71.1331 288.9821 15.08843045 75470,6917.871,95.437,540.755,538.717,0.0
54790.0,STARLINK-5445,PAYLOAD,2024-04-15 16:38:42,15.08844615,0.0001273,53.2174,259.8884,85.8356,274.2782,0.0001055,1.392e-05,0.0,0 STARLINK-5445,1 54790U 22175AJ  24106.69355081  .00001392  00000-0  10550-3 0  9991,2 54790  53.2174 259.8884 0001273  85.8356 274.2782 15.08844615 73353,6917.866,95.437,540.612,538.851,0.0
54790.0,STARLINK-5445,PAYLOAD,2024-04-16 14:54:06,15.08848225,0.0001603,53.2176,255.7237,92.3598,267.7578,0.00011301,1.511e-05,0.0,0 STARLINK-5445,1 54790U 22175AJ  24107.62090924  .00001511  00000-0  11301-3 0  9995,2 54790  53.2176 255.7237 0001603  92.3598 267.7578 15.08848225 75656,6917.855,95.437,540.829,538.611,0.0
54790.0,STARLINK-5445,PAYLOAD,2024-04-16 16:29:29,15.08847697,0.0001595,53.2182,255.4273,92.484,267.6335,0.00015177,2.129e-05,0.0,0 STARLINK-5445,1 54790U 22175AJ  24107.68714920  .00002129  00000-0  15177-3 0  9991,2 54790  53.2182 255.4273 0001595  92.4840 267.6335 15.08847697 75664,6917.857,95.437,540.825,538.618,0.0
54790.0,STARLINK-5445,PAYLOAD,2024-04-17 13:09:31,15.08818909,0.0001288,53.2151,251.5598,91.9967,268.1173,-0.00025936,-4.411e-05,0.0,0 STARLINK-5445,1 54790U 22175AJ  24108.54828070 -.00004411  00000-0 -25936-3 0  9991,2 54790  53.2151 251.5598 0001288  91.9967 268.1173 15.08818909 73635,6917.945,95.439,540.701,538.919,0.0
54790.0,STARLINK-5445,PAYLOAD,2024-04-17 14:44:54,15.08819376,0.0001636,53.217,251.2627,102.4888,257.6287,-0.00024912,-4.248e-05,0.0,0 STARLINK-5445,1 54790U 22175AJ  24108.61452100 -.00004248  00000-0 -24912-3 0  9997,2 54790  53.2170 251.2627 0001636 102.4888 257.6287 15.08819376 75802,6917.943,95.439,540.94,538.677,0.0
54790.0,STARLINK-5445,PAYLOAD,2024-04-17 16:20:17,15.08822701,0.0001563,53.2162,250.9645,103.9931,256.1235,-0.00023509,-4.026e-05,0.0,0 STARLINK-5445,1 54790U 22175AJ  24108.68075978 -.00004026  00000-0 -23509-3 0  9993,2 54790  53.2162 250.9645 0001563 103.9931 256.1235 15.08822701 75817,6917.933,95.439,540.88,538.717,0.0
54790.0,STARLINK-5445,PAYLOAD,2024-04-18 09:49:32,15.08829861,0.0001295,53.2156,247.6913,111.3583,248.7548,9.3615e-06,-1.39e-06,0.0,0 STARLINK-5445,1 54790U 22175AJ  24109.40940039 -.00000139  00000-0  93615-5 0  9990,2 54790  53.2156 247.6913 0001295 111.3583 248.7548 15.08829861 73769,6917.911,95.438,540.672,538.881,0.0
54790.0,STARLINK-5445,PAYLOAD,2024-04-19 12:51:05,15.088439,0.0001219,53.216,242.6363,75.6951,284.4177,0.00046729,7.158e-05,0.0,0 STARLINK-5445,1 54790U 22175AJ  24110.53548069  .00007158  00000-0  46729-3 0  9992,2 54790  53.2160 242.6363 0001219  75.6951 284.4177 15.08843900 73939,6917.868,95.437,540.577,538.89,0.0
54790.0,STARLINK-5445,PAYLOAD,2024-04-19 14:26:28,15.0884593,0.0001239,53.2155,242.3401,62.7041,297.4077,0.00077579,0.00012082,0.0,0 STARLINK-5445,1 54790U 22175AJ  24110.60172299  .00012082  00000-0  77579-3 0  9997,2 54790  53.2155 242.3401 0001239  62.7041 297.4077 15.08845930 76102,6917.862,95.437,540.584,538.87,0.0
54790.0,STARLINK-5445,PAYLOAD,2024-04-19 17:37:14,15.08862118,0.0001265,53.2166,241.7421,84.5771,275.5366,0.00072982,0.00011353,0.0,0 STARLINK-5445,1 54790U 22175AJ  24110.73419525  .00011353  00000-0  72982-3 0  9990,2 54790  53.2166 241.7421 0001265  84.5771 275.5366 15.08862118 73966,6917.813,95.436,540.553,538.803,0.0
54790.0,STARLINK-5445,PAYLOAD,2024-04-20 12:41:51,15.08855389,9.75e-05,53.2163,238.177,97.9223,262.188,0.00021291,3.104e-05,0.0,0 STARLINK-5445,1 54790U 22175AJ  24111.52906890  .00003104  00000-0  21291-3 0  9996,2 54790  53.2163 238.1770 0000975  97.9223 262.1880 15.08855389 74086,6917.833,95.437,540.373,539.024,0.0
54790.0,STARLINK-5445,PAYLOAD,2024-04-20 14:17:15,15.08795114,0.0001367,53.2157,237.8793,43.3587,316.7513,-0.0017429,-0.00027885,0.0,0 STARLINK-5445,1 54790U 22175AJ  24111.59531622 -.00027885  00000-0 -17429-2 0  9991,2 54790  53.2157 237.8793 0001367  43.3587 316.7513 15.08795114 76253,6918.018,95.44,540.828,538.937,0.0
54790.0,STARLINK-5445,PAYLOAD,2024-04-20 17:28:01,15.08786001,8.31e-05,53.2159,237.2848,92.005,268.1038,-0.0020644,-0.00032943,0.0,0 STARLINK-5445,1 54790U 22175AJ  24111.72779412 -.00032943  00000-0 -20644-2 0  9991,2 54790  53.2159 237.2848 0000831  92.0050 268.1038 15.08786001 74111,6918.045,95.441,540.485,539.336,0.0
54790.0,STARLINK-5445,PAYLOAD,2024-04-21 14:08:04,15.08844365,0.000143,53.217,233.4174,123.6356,236.4772,0.0021777,0.00034544,0.0,0 STARLINK-5445,1 54790U 22175AJ  24112.58893562  .00034544  00000-0  21777-2 0  9994,2 54790  53.2170 233.4174 0001430 123.6356 236.4772 15.08844365 76405,6917.867,95.437,540.721,538.743,0.0
54790.0,STARLINK-5445,PAYLOAD,2024-04-21 17:18:50,15.08854656,0.0001202,53.2168,232.8242,78.3954,281.7173,0.0025415,0.00040408,0.0,0 STARLINK-5445,1 54790U 22175AJ  24112.72141785  .00040408  00000-0  25415-2 0  9992,2 54790  53.2168 232.8242 0001202  78.3954 281.7173 15.08854656 76422,6917.836,95.437,540.532,538.869,0.0
54790.0,STARLINK-5445,PAYLOAD,2024-04-22 17:09:36,15.08862463,0.0001059,53.2172,228.3653,94.9993,265.112,0.0006712,0.00010417,0.0,0 STARLINK-5445,1 54790U 22175AJ  24113.71500837  .00010417  00000-0  67120-3 0  9996,2 54790  53.2172 228.3653 0001059  94.9993 265.1120 15.08862463 74410,6917.812,95.436,540.409,538.944,0.0
54790.0,STARLINK-5445,PAYLOAD,2024-04-23 12:14:14,15.08842513,0.0001624,53.2168,224.7938,120.3083,239.807,0.00017347,2.474e-05,0.0,0 STARLINK-5445,1 54790U 22175AJ  24114.50988896  .00002474  00000-0  17347-3 0  9999,2 54790  53.2168 224.7938 0001624 120.3083 239.8070 15.08842513 74532,6917.873,95.437,540.861,538.614,0.0
54790.0,STARLINK-5445,PAYLOAD,2024-04-23 13:49:37,15.08842337,0.0001411,53.2167,224.4977,108.4458,251.6688,0.0002186,3.193e-05,0.0,0 STARLINK-5445,1 54790U 22175AJ  24114.57613007  .00003193  00000-0  21860-3 0  9999,2 54790  53.2167 224.4977 0001411 108.4458 251.6688 15.08842337 76700,6917.873,95.437,540.714,538.762,0.0
